OBJECT_NAME,OBJECT_ID,EPOCH,MEAN_MOTION,ECCENTRICITY,INCLINATION,RA_OF_ASC_NODE,ARG_OF_PERICENTER,MEAN_ANOMALY,EPHEMERIS_TYPE,CLASSIFICATION_TYPE,NORAD_CAT_ID,ELEMENT_SET_NO,REV_AT_EPOCH,BSTAR,MEAN_MOTION_DOT,MEAN_MOTION_DDOT
DMSP 5D-3 F16 (USA 172),2003-048A,2026-07-17T22:41:31.207776,14.14484741,.00080458,98.9897,222.9762,64.3895,50.3374,0,U,28054,999,17383,-.5688374E-5,-.56E-6,0
METEOSAT-9 (MSG-2),2005-049B,2026-07-17T23:17:10.063968,1.00273580,.00023274,9.4295,53.8604,357.3111,279.5684,0,U,28912,999,730,0,.112E-5,0
DMSP 5D-3 F17 (USA 191),2006-050A,2026-07-17T22:17:50.972352,14.14996183,.00095654,98.7388,204.8713,334.7518,25.3187,0,U,29522,999,1677,.695625E-6,-.42E-6,0
FENGYUN 3A,2008-026A,2026-07-17T20:21:56.083392,14.19576787,.00095735,98.6886,139.1091,45.0358,315.1593,0,U,32958,999,93975,.29376717E-4,.19E-6,0
EWS-G3 (GOES 14),2009-033A,2026-07-17T22:24:46.723968,1.00096891,.00020228,1.7672,82.6590,39.6458,272.9884,0,U,35491,999,689,0,-.369E-5,0
DMSP 5D-3 F18 (USA 210),2009-057A,2026-07-17T21:39:24.354144,14.14912881,.00113893,98.9058,179.6080,157.9988,202.1676,0,U,35951,999,86393,.11106259E-3,.17E-5,0
EWS-G2 (GOES 15),2010-008A,2026-07-17T22:07:40.863072,1.00268981,.00053292,1.3604,82.4294,53.9198,194.5823,0,U,36411,999,5994,0,.13E-6,0
COMS 1,2010-032A,2026-07-17T11:20:22.900992,0.99167397,.0011288,4.8812,74.9910,15.0272,328.3763,0,U,36744,999,5138,0,-.24E-5,0
FENGYUN 3B,2010-059A,2026-07-18T00:08:51.208800,14.14846780,.0023175,98.9599,245.1487,98.9820,15.8292,0,U,37214,999,81178,.14944209E-4,-.16E-6,0
SUOMI NPP,2011-061A,2026-07-17T22:21:15.907104,14.19522904,.00008766,98.7955,139.5986,200.3898,159.7243,0,U,37849,999,76280,.35639729E-4,.31E-6,0
METEOSAT-10 (MSG-3),2012-035B,2026-07-17T20:06:57.963168,1.00271611,.0001274,4.7426,60.8694,17.0154,159.5481,0,U,38552,999,5116,0,-.18E-6,0
METOP-B,2012-049A,2026-07-17T22:48:36.033984,14.21446852,.00011723,98.6488,249.8333,239.8785,120.2276,0,U,38771,999,71763,.3796639E-4,.4E-6,0
INSAT-3D,2013-038B,2026-07-17T20:43:57.175680,1.00267513,.00005761,2.0035,82.1515,70.7495,223.2253,0,U,39216,999,4738,0,-.349E-5,0
FENGYUN 3C,2013-052A,2026-07-17T22:16:24.421152,14.15761113,.00135663,98.5001,171.3949,297.4722,62.5073,0,U,39260,999,66291,.24873802E-4,.7E-7,0
METEOR-M 2,2014-037A,2026-07-17T21:44:33.977184,14.21470276,.00049843,98.5135,173.5600,317.5933,42.4859,0,U,40069,999,62368,.82675541E-4,.139E-5,0
HIMAWARI-8,2014-060A,2026-07-17T22:29:46.245984,1.00270766,.00011714,0.0151,34.0429,131.0114,248.7996,0,U,40267,999,4306,0,-.284E-5,0
FENGYUN 2G,2014-090A,2026-07-17T23:09:42.969024,1.00279731,.00041328,5.7148,72.4427,173.7948,136.3644,0,U,40367,999,4230,0,-.313E-5,0
METEOSAT-11 (MSG-4),2015-034A,2026-07-17T22:14:15.519264,1.00272713,.00021038,3.2755,70.9121,354.8594,212.7858,0,U,40732,999,752,0,.52E-6,0
ELEKTRO-L 2,2015-074A,2026-07-17T21:45:34.083072,1.00272057,.00009763,6.7694,70.1443,217.4447,320.0214,0,U,41105,999,3881,0,-.129E-5,0
SENTINEL-3A,2016-011A,2026-07-17T22:24:08.826336,14.26740239,.00013346,98.6235,265.8732,89.4056,270.7277,0,U,41335,999,54244,.34744251E-4,.4E-6,0
INSAT-3DR,2016-054A,2026-07-17T22:10:48.064224,1.00271041,.00104624,0.0768,88.9555,180.8222,72.6451,0,U,41752,999,3612,0,-.85E-6,0
HIMAWARI-9,2016-064A,2026-07-17T15:39:14.732640,1.00269723,.00020958,0.0291,243.3409,291.2307,136.4215,0,U,41836,999,3551,0,-.285E-5,0
GOES 16,2016-071A,2026-07-17T21:19:46.241760,1.00271270,.00005695,0.4110,85.4588,84.6286,340.8550,0,U,41866,999,3541,0,-.1E-5,0
FENGYUN 4A,2016-077A,2026-07-17T22:24:54.212256,1.00266719,.00084166,2.3991,79.9338,159.7462,155.9949,0,U,41882,999,3523,0,-.367E-5,0
CYGFM05,2016-078A,2026-07-17T22:46:48.154944,15.57940504,.00055022,34.9569,56.6818,66.5453,293.5850,0,U,41884,999,53355,.20177682E-3,.15584E-3,0
CYGFM04,2016-078B,2026-07-17T21:13:01.920864,15.63194228,.00041216,34.9329,23.1976,116.7383,243.3765,0,U,41885,999,53380,.22258448E-3,.21075E-3,0
CYGFM02,2016-078C,2026-07-17T21:16:52.012704,15.66500155,.00048664,34.9411,16.7705,119.2555,240.8659,0,U,41886,999,53398,.23945941E-3,.25902E-3,0
CYGFM01,2016-078D,2026-07-17T22:10:34.967712,15.58661886,.00054307,34.9400,57.6492,58.6264,301.4992,0,U,41887,999,53350,.20779926E-3,.16499E-3,0
CYGFM08,2016-078E,2026-07-17T21:25:17.639328,15.61561521,.00059692,34.9435,36.5936,98.8745,261.2656,0,U,41888,999,53377,.22283992E-3,.19797E-3,0
CYGFM07,2016-078G,2026-07-17T20:23:33.272160,15.61669253,.00045294,34.9452,25.1938,116.3837,243.7354,0,U,41890,999,53379,.22073093E-3,.19684E-3,0
CYGFM03,2016-078H,2026-07-17T21:14:09.948768,15.61657157,.00043067,34.9407,26.8882,97.8498,262.2717,0,U,41891,999,53377,.22227219E-3,.19812E-3,0
